[{"OBJECT_NAME":"SKYSAT-C6","OBJECT_ID":"2017-068F","EPOCH":"2026-03-09T21:33:49.392576","MEAN_MOTION":15.32504544,"ECCENTRICITY":0.00036369,"INCLINATION":97.44,"RA_OF_ASC_NODE":205.7173,"ARG_OF_PERICENTER":127.5085,"MEAN_ANOMALY":232.6488,"EPHEMERIS_TYPE":0,"CLASSIFICATION_TYPE":"U","NORAD_CAT_ID":42992,"ELEMENT_SET_NO":999,"REV_AT_EPOCH":46710,"BSTAR":0.00039699196,"MEAN_MOTION_DOT":0.0001239,"MEAN_MOTION_DDOT":0},{"OBJECT_NAME":"STARLINK-33944","OBJECT_ID":"2025-117G","EPOCH":"2026-03-09T04:53:40.886880","MEAN_MOTION":15.30192314,"ECCENTRICITY":0.00012388,"INCLINATION":53.1606,"RA_OF_ASC_NODE":41.7035,"ARG_OF_PERICENTER":91.7874,"MEAN_ANOMALY":268.3269,"EPHEMERIS_TYPE":0,"CLASSIFICATION_TYPE":"U","NORAD_CAT_ID":64209,"ELEMENT_SET_NO":999,"REV_AT_EPOCH":4448,"BSTAR":0.0010320621,"MEAN_MOTION_DOT":0.00030325,"MEAN_MOTION_DDOT":0}]
